IRIDIUM 106             
1 41917U 17003A   25239.85840641  .00000067  00000+0  16952-4 0  9999
2 41917  86.3984 211.0514 0002614  94.7637 265.3857 14.34218102451164
IRIDIUM 103             
1 41918U 17003B   25239.91548747  .00000101  00000+0  29064-4 0  9996
2 41918  86.3984 210.9283 0001863  98.4250 261.7157 14.34218445451199
IRIDIUM 109             
1 41919U 17003C   25239.92183153  .00000008  00000+0 -42110-5 0  9999
2 41919  86.3985 210.9803 0002105  86.0723 274.0713 14.34217692451162
IRIDIUM 102             
1 41920U 17003D   25239.89011807  .00000056  00000+0  12787-4 0  9991
2 41920  86.3983 210.9234 0002251  83.2859 276.8593 14.34218101451242
IRIDIUM 105             
1 41921U 17003E   25239.86085806  .00000210  00000+0  67981-4 0  9997
2 41921  86.4040 179.4384 0002131  87.5877 272.5563 14.34218001453091
IRIDIUM 104             
1 41922U 17003F   25239.90279007  .00000345  00000+0  11610-3 0  9997
2 41922  86.3985 210.9562 0001885  84.5656 275.5755 14.34222097451235
IRIDIUM 114             
1 41923U 17003G   25239.90914483  .00000329  00000+0  11041-3 0  9992
2 41923  86.3984 210.9377 0002157  92.7773 267.3669 14.34219043451211
IRIDIUM 108             
1 41924U 17003H   25239.86766793  .00000085  00000+0  23279-4 0  9993
2 41924  86.4035 179.3325 0002435  84.1377 276.0096 14.34218216453062
